#cP2023  9 27  0  0  0.00000000      96 ORBIT IGS20 HLM  IGS
## 2281 259200.00000000   900.00000000 60214 0.0000000000000
+   32   G01G02G03G04G05G06G07G08G09G10G11G12G13G14G15G16G17
+        G18G19G20G21G22G23G24G25G26G27G28G29G30G31G32  0  0
+          0  0  0  0  0  0  0  0  0  0  0  0  0  0  0  0  0
+          0  0  0  0  0  0  0  0  0  0  0  0  0  0  0  0  0
+          0  0  0  0  0  0  0  0  0  0  0  0  0  0  0  0  0
++         2  2  2  2  2  2  2  2  2  2  2  2  2  2  2  2  2
++         2  2  2  2  2  2  3  2  2  2  3  2  2  2  2  0  0
++         0  0  0  0  0  0  0  0  0  0  0  0  0  0  0  0  0
++         0  0  0  0  0  0  0  0  0  0  0  0  0  0  0  0  0
++         0  0  0  0  0  0  0  0  0  0  0  0  0  0  0  0  0
%c G  cc GPS ccc cccc cccc cccc cccc ccccc ccccc ccccc ccccc
%c cc cc ccc ccc cccc cccc cccc cccc ccccc ccccc ccccc ccccc
%f  1.2500000  1.025000000  0.00000000000  0.000000000000000
%f  0.0000000  0.000000000  0.00000000000  0.000000000000000
%i    0    0    0    0      0      0      0      0         0
%i    0    0    0    0      0      0      0      0         0
/* FINAL ORBIT COMBINATION FROM WEIGHTED AVERAGE OF:        
/* cod esa gfz grg jgx jpl mit ngs sio                      
/* REFERENCED TO IGS TIME (IGST) AND TO WEIGHTED MEAN POLE: 
/* PCV:IGS20      OL/AL:FES2014b NONE     Y  ORB:CMB CLK:CMB
*  2023  9 27 20 15  0.00000000
PG01 -17968.997651  -8651.802053  17369.292483    164.570367  7  8  6  56       
PG02 -19848.127828 -12968.813204  12652.563981   -548.878908  9  8  9 102       
PG03 -17115.110609   3214.272828  19873.116098   -111.535707  3  3  6  50       
PG04 -26619.724980   -684.152113     39.816213    168.425094  7  3  4  84       
PG05  10440.347711  12059.899612 -21405.155047   -144.375865  5  6  3  68       
PG06   3333.050710  22897.630796  13022.063913    542.166974  6  4  7  56       
PG07 -12201.790940   9165.205334 -21244.336283     55.519972     3  2  85       
PG08 -23913.570177  -6319.271814 -10280.946719   -144.386038  7  6  6  52       
PG09 -24087.346374   7048.386861  -8865.676164    -48.046332  6  5  2  76       
PG10  10280.354359 -23971.910592   4149.970609    -55.118452  6  6  6  70       
PG11  12093.467340  23674.774687    470.929289   -389.197505  7  5  5           
PG12  16357.788368   1171.668365  20604.997320   -429.626449  3  3  4  75       
PG13  16905.947538  13228.054080 -15976.439039    577.555653  4  6  3           
PG14 -13213.108594  22922.877811    710.994131    197.605241  8  5  5  80       
PG15  24709.299610   3563.608805  -9888.957187     81.644962  5  6  5  16       
PG16  -5411.639293 -16750.273575 -20060.040328   -447.814590  7  6  4  89       
PG17 -11387.859962  13343.934747  20412.407803    723.852380  5  7  3  77       
PG18  10438.386823 -11325.778285 -21610.455697   -431.213516  4  7  7  56       
PG19  -1786.163144  14780.758942  21791.524652    377.314578  4  5  5  77       
PG20   3639.915883  21699.804865 -14968.828598    409.674182  7  4  4  90       
PG21 -19812.306019 -15759.421778   9942.788457    148.004474  9  8  7  47       
PG22  -9224.502514  23739.790274   8477.421474    113.553163  7  6  2  68       
PG23  16438.447291 -18941.210804  -8460.118763     74.416559  7  6  6  83       
PG24  20111.389130  11561.332861  12920.827958   -331.259442  8  7  5  73       
PG25  18246.523427 -12927.160829  13806.631757    469.940826  5  1  5  71       
PG26    891.222338 -23373.866622 -12368.124304    226.301426  7  5  5  96       
PG27 -13873.767210 -12944.134603 -19005.126826    -46.420156  8  5  6  68       
PG28  -2341.321022 -22230.158904  14324.619253    -16.136877  7 12 10  51       
PG29  24515.039197  -4683.641998  -9282.167172   -609.704614  4  5  5  81       
PG30  -4732.969778  18516.804899 -18215.845512   -483.901030  6  7  4  88       
PG31  -9088.216080 -24066.194766   5453.835593   -223.963272  7  7  8  87       
PG32   6148.853982 -14960.582813  21210.822656   -564.545825  4  5  6 100       
*  2023  9 27 20 30  0.00000000
PG01 -18878.565770 -10343.928554  15437.969126    164.569736  8  8  7  39       
PG02 -20451.324488 -14058.455616  10207.392460   -548.874782 10  8  9  92       
PG03 -16091.297838   1083.581328  20932.501490   -111.516435  4  3  6  74       
PG04 -26455.636485   -923.470456   2887.164369    168.435023  7  5  3  66       
PG05   9383.638609  14175.276487 -20566.287167   -144.377507  6  5  2  92       
PG06   2369.472813  21604.203500  15268.979960    542.160267  6  4  7  51       
PG07 -13576.712559   7032.609226 -21265.943882     55.510796     3  2  67       
PG08 -22639.977438  -6609.811219 -12679.753840   -144.387579  7  6  7  43       
PG09 -24952.219678   6859.884612  -6198.008057    -48.036863  6  6  3  70       
PG10  10611.950642 -24128.222606   1258.550990    -55.120300  6  6  7  78       
PG11  11782.531715  23604.352404   3323.506324   -389.213653  6  5  5  25       
PG12  15130.571268   3299.094948  21297.739297   -429.630527  3  3  4  74       
PG13  15012.664310  13174.942001 -17809.420980    577.559686  4  5  3   9       
PG14 -13440.027024  22699.925443  -2126.278485    197.615391  8  5  5  74       
PG15  23576.978782   4041.728108 -12276.443283     81.648435  4  5  5  41       
PG16  -4133.397083 -18511.290629 -18712.057901   -447.809374  8  6  5  98       
PG17 -13556.378623  13216.522490  19110.282208    723.852540  4  7  3  84       
PG18  11763.750898  -9216.557143 -21945.365133   -431.224494  3  7  6  78       
PG19  -4300.521437  14587.988857  21541.253073    377.318994  3  5  5  71       
PG20   2957.605135  23152.265492 -12808.801434    409.672353  6  4  5  67       
PG21 -20237.414954 -16570.980139   7362.084750    148.003188  9  9  7  54       
PG22  -9808.550718  24262.516472   5788.325092    113.546493  7  6  3  70       
PG23  16133.185468 -17843.814181 -11052.189941     74.421531  6  5  6  85       
PG24  20758.780573  12818.694887  10607.543807   -331.268695  8  8  6  70       
PG25  17658.012497 -11253.058124  15863.529401    469.942602  5  3  5  84       
PG26   1679.824983 -24425.477433  -9968.955057    226.299579  7  5  6  99       
PG27 -11694.841938 -13131.791228 -20279.172309    -46.425569  8  5  6  64       
PG28  -1199.403155 -20881.085671  16349.453102    -16.142290  6 11 10  46       
PG29  25407.343953  -4460.945459  -6599.634141   -609.704811  2  5  5  68       
PG30  -6041.227084  16743.721237 -19514.700517   -483.897903  6  6  3  94       
PG31  -8417.169908 -23523.102540   8174.844783   -223.963867  6  6  7  76       
PG32   8494.745002 -14998.413160  20330.977231   -564.550968  3  5  6  98       
*  2023  9 27 20 45  0.00000000
PG01 -19747.358902 -11784.076198  13238.834462    164.569194  8  8  7  49       
PG02 -20927.875166 -14902.671866   7591.895747   -548.870805 10  9  8  95       
PG03 -15144.746276  -1190.908375  21626.159225   -111.497151  4  3  6  65       
PG04 -25986.380079  -1192.598454   5685.201452    168.444939  7  5  2  64       
PG05   8482.552289  16239.425511 -19378.372510   -144.378375  6  5  2  67       
PG06   1196.121456  20171.959197  17253.165068    542.153521  6  4  7  59       
PG07 -15040.572135   4990.478491 -20906.032827     55.501622  3  3  3  84       
PG08 -21127.869377  -7000.720488 -14865.588307   -144.388296  8  6  6  65       
PG09 -25521.219032   6677.581880  -3424.263795    -48.027386  6  6  3  41       
PG10  10800.975174 -23998.620810  -1654.934048    -55.121461  7  7  7  58       
PG11  11294.156746  23282.619094   6119.073080   -389.229792  5  5  6  17       
PG12  13987.966442   5538.151672  21614.465534   -429.634462  4  3  4  64       
PG13  12930.400352  13217.856333 -19342.750219    577.563802  4  5  3           
PG14 -13538.143101  22200.616876  -4926.560712    197.625514  7  5  6   3       
PG15  22224.739666   4633.414789 -14460.266968     81.651793  4  5  4  46       
PG16  -3028.668032 -20192.589586 -17045.113872   -447.804491  8  6  5 106       
PG17 -15567.745210  13201.505212  17491.618664    723.852383  3  7  3  80       
PG18  13209.972481  -7170.179325 -21902.261829   -431.235370  2  7  6  69       
PG19  -6774.195913  14529.003953  20912.240980    377.323614  2  5  5  56       
PG20   2414.149285  24388.817501 -10429.904368    409.670763  6  4  5  78       
PG21 -20514.667715 -17140.935316   4663.049831    148.002130 10  9  6  43       
PG22 -10217.159910  24547.979942   3002.311157    113.539625  6  6  4  58       
PG23  15779.049234 -16469.329275 -13452.177176     74.426465  6  5  6  73       
PG24  21288.894701  13834.053113   8112.550941   -331.277989  8  8  6  79       
PG25  17066.173769  -9349.413000  17638.289321    469.944367  5  4  4  80       
PG26   2323.010144 -25249.370924  -7395.787819    226.297745  7  5  6  61       
PG27  -9404.294958 -13450.468994 -21215.082173    -46.430977  8  5  5  76       
PG28    142.424306 -19424.787384  18092.523671    -16.147644  6 10 10  48       
PG29  26001.005179  -4278.801299  -3804.363683   -609.705408  1  5  5  61       
PG30  -7505.294449  14931.575040 -20472.148891   -483.894767  6  6  2  73       
PG31  -7547.183648 -22764.403503  10750.731818   -223.964112  5  5  7  91       
PG32  10720.194945 -15145.544643  19104.986659   -564.556130  2  5  6  91       
EOF
